IRIDIUM 39              
1 25042U 97069D   25206.51853749  .00000556  00000+0  14029-3 0  9995
2 25042  86.3933 194.7040 0017973 171.5874 188.5635 14.49252785454514
IRIDIUM 38              
1 25043U 97069E   25206.50688190  .00000389  00000+0  12172-3 0  9992
2 25043  86.3948 217.0359 0002228  38.2948 321.8407 14.38140625451468
IRIDIUM 42              
1 25077U 97077A   25206.49048928  .00000348  00000+0  11224-3 0  9997
2 25077  86.3947 223.2584 0002291  70.6712 289.4733 14.36374039446698
IRIDIUM 44              
1 25078U 97077B   25206.48053067  .00000366  00000+0  10944-3 0  9995
2 25078  86.3965 205.0933 0000459 117.2801 242.8445 14.40263849449211
IRIDIUM 45              
1 25104U 97082A   25206.49752242  .00019126  00000+0  66762-3 0  9996
2 25104  86.3564  29.2667 0114213 186.9489 173.0181 15.23357668457873
IRIDIUM 24              
1 25105U 97082B   25206.54305708  .00000420  00000+0  12169-3 0  9993
2 25105  86.3869  64.0249 0009959 320.3509  39.6962 14.42126378448744
IRIDIUM 51              
1 25262U 98018A   25206.54596350  .00038751  00000+0  79592-3 0  9993
2 25262  86.3797  36.8011 0084603 102.3409 258.7333 15.41962499452932
IRIDIUM 57              
1 25273U 98019B   25206.29059137  .00000314  00000+0  10162-3 0  9997
2 25273  86.3989 129.3047 0002155  83.3835 276.7607 14.35913437430252
